STARLINK-30069          
1 56834U 23079M   26067.48212902 -.00002416  00000+0 -80472-4 0  9995
2 56834  42.9986 110.4464 0000469 272.6695  87.4103 15.26726881152740
STARLINK-31508          
1 59503U 24071V   26068.18395426 -.00003974  00000+0 -13500-3 0  9992
2 59503  43.0000 342.9980 0001588 245.9634 114.1051 15.27573533108127
